LEMUR-2-JOHANLORAN      
1 44084U 19018G   22324.12388184  .00050863  00000+0  92890-3 0  9999
2 44084  97.2958  25.8255 0006167 260.7018  99.3536 15.49230160202744
LEMUR-2-BEAUDACIOUS     
1 44085U 19018H   22324.42952729  .00021334  00000+0  54882-3 0  9995
2 44085  97.2941  23.8272 0007771 274.2972  85.7385 15.39246270202643
LEMUR-2-ELHAM           
1 44086U 19018J   22324.11979688  .00031050  00000+0  69903-3 0  9991
2 44086  97.3001  25.4371 0007967 266.4205  93.6132 15.43206289202705
LEMUR-2-VICTOR-ANDREW   
1 44087U 19018K   22323.90706534  .00055057  00000+0  99894-3 0  9991
2 44087  97.2991  26.3498 0006141 259.0733 100.9827 15.49398219202759
LEMUR-2-LILLYJO         
1 44396U 19038L   22323.84732795  .00010949  00000+0  45861-3 0  9993
2 44396  97.6338 295.1532 0017865 314.9342  45.0444 15.23576726186699
LEMUR-2-WANLI           
1 44402U 19038S   22324.12859053  .00016664  00000+0  71364-3 0  9997
2 44402  97.6361 295.0974 0017312 313.2659  46.7131 15.22729306186719
LEMUR-2-MORAG           
1 44403U 19038T   22324.53224862  .00009777  00000+0  42603-3 0  9998
2 44403  97.6410 296.5193 0017879 311.6917  48.2788 15.22266287186800
LEMUR-2-DUSTINTHEWIND   
1 44405U 19038V   22324.47759648  .00013289  00000+0  57984-3 0  9999
2 44405  97.6372 295.2769 0018454 311.2324  48.7321 15.22127933186769
LEMUR-2-ALEX-MADDY      
1 44407U 19038X   22323.68538051  .00009506  00000+0  44800-3 0  9996
2 44407  97.6463 294.2144 0018786 322.1330  37.8582 15.19567457186554
LEMUR-2-EJATTA          
1 44409U 19038Z   22323.66105005  .00011844  00000+0  50014-3 0  9997
2 44409  97.6350 295.2976 0017506 308.2257  51.7403 15.23285005186702
LEMUR-2-GREGROBINSON    
1 44411U 19038AB  22324.47689723  .00017391  00000+0  73688-3 0  9999
2 44411  97.6398 296.4235 0018227 320.6349  39.3561 15.23066059186454
LEMUR-2-YNDRD           
1 44413U 19038AD  22323.92572746  .00012181  00000+0  57148-3 0  9991
2 44413  97.6446 294.1917 0019028 324.1274  35.8681 15.19650715186590
LEMUR-2-JPGSQUARED      
1 44855U 19089D   22324.17499389  .00008553  00000+0  59492-3 0  9998
2 44855  36.9649 251.9185 0003225  28.8972 331.1949 15.05064626161467
LEMUR-2-HIMOMANDDAD     
1 44860U 19089J   22324.16651280  .00009105  00000+0  63626-3 0  9991
2 44860  36.9650 253.6796 0003267  21.2318 338.8560 15.04869900161425
LEMUR-2-PAPPY           
1 44861U 19089K   22323.88964173  .00006678  00000+0  47133-3 0  9995
2 44861  36.9646 255.1600 0003394  19.8798 340.2077 15.04629770161348
LEMUR-2-THEODOSIA       
1 44863U 19089M   22324.22287484  .00009185  00000+0  63783-3 0  9994
2 44863  36.9640 252.2441 0003269  29.2320 330.8606 15.05097962161315
LEMUR-2-ETHANOAKES      
1 46298U 20061AC  22323.63808761  .00015090  00000+0  67291-3 0  9991
2 46298  97.4351  32.8176 0001459  74.8684 285.2714 15.21498689122066
LEMUR-2-OSCARLATOR      
1 46299U 20061AD  22324.19268636  .00016490  00000+0  72058-3 0  9997
2 46299  97.4364  33.4957 0001703  74.1158 286.0266 15.22171757122185
LEMUR-2-SCHMIDTFALL     
1 46315U 20061AV  22323.63173398  .00017666  00000+0  75879-3 0  9994
2 46315  97.4373  33.5265 0001620  21.9298 338.2008 15.22745499122173
LEMUR-2-DJUPROERA       
1 46316U 20061AW  22323.19345656  .00020993  00000+0  87864-3 0  9998
2 46316  97.4367  33.2831 0001726  17.8355 342.2942 15.23586883122126
LEMUR-2-SQUAREJAWS      
1 46317U 20061AX  22323.63154890  .00018766  00000+0  79501-3 0  9990
2 46317  97.4366  33.6341 0001628  14.7858 345.3426 15.23198965122199
LEMUR-2-URSA-AVION      
1 46318U 20061AY  22323.43867724  .00020161  00000+0  85742-3 0  9992
2 46318  97.4364  33.4254 0001648  13.5692 346.5589 15.23052536122167
LEMUR-2-SLICERS         
1 46500U 20068Q   22323.30060758  .00007676  00000+0  50064-3 0  9995
2 46500  97.7376 264.3922 0013328 120.4989 239.7556 15.08097024117422
LEMUR-2-DAYWZAGOODDAY   
1 46501U 20068R   22323.80614941  .00006849  00000+0  44352-3 0  9994
2 46501  97.7421 265.1626 0012624 117.2659 242.9648 15.08412536117506
LEMUR-2-SUSURRUS        
1 46502U 20068S   22323.96488485  .00007007  00000+0  45724-3 0  9995
2 46502  97.7393 265.0529 0013634 118.3472 241.9125 15.08110508117528
LEMUR-2-NICHOL          
1 46503U 20068T   22323.25984206  .00006822  00000+0  44706-3 0  9993
2 46503  97.7350 264.2902 0012092 125.5762 234.6585 15.07979996117417
LEMUR-2-OZARAK          
1 46908U 20081D   22323.85770508  .00008658  00000+0  62226-3 0  9997
2 46908  36.9028  20.1567 0006803 260.4943  99.5010 15.03816052111551
LEMUR-2-JINDRA          
1 46909U 20081E   22323.85969513  .00009748  00000+0  68559-3 0  9990
2 46909  36.9088  18.3365 0006412 262.9658  97.0325 15.04583032111584
LEMUR-2-WALLACE         
1 46910U 20081F   22324.22287073  .00009295  00000+0  65911-3 0  9994
2 46910  36.9107  16.5964 0006882 264.3168  95.6637 15.04292122111628
LEMUR-2-JEREMIAH        
1 46911U 20081G   22324.21080025  .00008636  00000+0  61666-3 0  9993
2 46911  36.9089  16.5286 0006756 268.6235  91.3730 15.04060303111639
LEMUR-2-NEVA            
1 47450U 21006AP  22324.11157454  .00011593  00000+0  52452-3 0  9999
2 47450  97.4279  21.3488 0011278  97.6959 262.5558 15.21007895100923
LEMUR-2-SAOIRSEDH5GUO   
1 47453U 21006AS  22323.63270222  .00013575  00000+0  60583-3 0  9993
2 47453  97.4302  21.0067 0010044  99.6333 260.6038 15.21452246100848
LEMUR-2-NALLYWACKER     
1 47457U 21006AW  22324.13598700  .00011969  00000+0  53113-3 0  9993
2 47457  97.4274  21.4813 0010808  96.2663 263.9804 15.21670778100939
LEMUR-2-MANGO1          
1 47493U 21006CJ  22324.10208008  .00009104  00000+0  43210-3 0  9994
2 47493  97.4224  20.2823 0010550 100.6353 259.6070 15.19431954100881
LEMUR-2-RUAIRI-EILIDH   
1 47511U 21006DC  22323.38542735  .00013084  00000+0  61190-3 0  9991
2 47511  97.4211  19.2183 0008490 103.8285 256.3895 15.19862670100752
LEMUR-2-JENNIFERSONG    
1 47525U 21006DR  22323.14797294  .00014783  00000+0  65605-3 0  9994
2 47525  97.4231  20.1321 0011049  99.0795 261.1692 15.21614318100789
LEMUR-2-CHANTAL         
1 47529U 21006DV  22324.14931397  .00009022  00000+0  43263-3 0  9999
2 47529  97.4219  19.6892 0008051 105.3269 254.8856 15.19095474101809
LEMUR-2-NOOBNOOB        
1 47538U 21006DY  22323.38183038  .00013655  00000+0  62673-3 0  9998
2 47538  97.4282  20.4788 0010867 101.0499 259.1959 15.20481296100791
LEMUR-2-AMANDA-SVANTE   
1 48269U 21034B   22323.60798558  .00004573  00000+0  49677-3 0  9993
2 48269  97.7340  31.1692 0001920 287.7745  72.3263 14.88589624 84601
LEMUR-2-SPECIAL-K       
1 48273U 21034F   22324.49137867  .00003750  00000+0  40836-3 0  9990
2 48273  97.7341  32.0075 0001953 275.3535  84.7459 14.88591470 84749
LEMUR-2-JACKSON         
1 48885U 21059G   22324.13003423  .00013417  00000+0  61542-3 0  9995
2 48885  97.5697  93.7713 0007104 279.2647  80.7784 15.20542165 77567
LEMUR-2-ANNABANANA      
1 48923U 21059AW  22323.62174242  .00014965  00000+0  65290-3 0  9992
2 48923  97.5634  93.7443 0009544 268.8114  91.2028 15.22215076 77540
LEMUR-2-JOHN-TREIRES    
1 48925U 21059AY  22323.63081669  .00016500  00000+0  69832-3 0  9998
2 48925  97.5724  94.5335 0011814 271.4955  88.4928 15.23204158 77577
LEMUR-2-AC-CUBED        
1 48927U 21059BA  22323.62849810  .00013454  00000+0  59070-3 0  9997
2 48927  97.5700  94.2308 0013939 275.9582  84.0065 15.21976162 77567
LEMUR-2-MERIMA          
1 48929U 21059BC  22323.63225802  .00015224  00000+0  65014-3 0  9991
2 48929  97.5640  94.3444 0013870 276.4206  83.5450 15.22891528 77584
LEMUR-2-CARLSANTAMARI   
1 48959U 21059CJ  22323.61905848  .00021642  00000+0  83596-3 0  9993
2 48959  97.5686  95.2546 0012977 278.1266  81.8500 15.26200676 77637
LEMUR-2-RAMONAMAE       
1 51021U 22002AP  22324.11929104  .00012232  00000+0  58853-3 0  9996
2 51021  97.4722  29.1292 0006952 249.3397 110.7092 15.18908504 47019
LEMUR-2-KING-JULIEN     
1 51022U 22002AQ  22323.60919132  .00012937  00000+0  62604-3 0  9991
2 51022  97.4696  28.4976 0006938 248.8754 111.1738 15.18693461 46931
LEMUR-2-ROHOVITHSA      
1 51036U 22002BE  22324.17989241  .00007540  00000+0  38918-3 0  9992
2 51036  97.4724  28.7778 0007434 252.8208 107.2211 15.16585242 46995
LEMUR-2-MIRIWARI        
1 51054U 22002BY  22324.12216970  .00006669  00000+0  34486-3 0  9996
2 51054  97.4716  28.6723 0006667 246.7978 113.2553 15.16568967 46988
LEMUR-2-DJIRANG         
1 51058U 22002CC  22324.12299420  .00009225  00000+0  47540-3 0  9997
2 51058  97.4695  28.5903 0006504 246.9344 113.1203 15.16583003 46985
LEMUR-2-KRYWE           
1 51100U 22003G   22324.31109814  .00051359  00000+0  11411-2 0  9996
2 51100  44.9855 285.5131 0008600  89.4151 270.7723 15.42945225 47560
LEMUR-2-TENNYSONLILY    
1 52732U 22057A   22323.54299680  .00012161  00000+0  65087-3 0  9999
2 52732  97.5342  76.2021 0008507  17.7941 342.3587 15.15156877 26880
LEMUR-2-VANDENDRIES     
1 52733U 22057B   22323.78339743  .00006219  00000+0  33929-3 0  9998
2 52733  97.5232  76.2462 0007546  15.1104 345.0351 15.14690961 26923
LEMUR-2-KAREN_B         
1 52736U 22057E   22324.29414215  .00010749  00000+0  56921-3 0  9996
2 52736  97.5217  76.7442 0006926   5.4656 354.6651 15.15576974 27004
LEMUR-2-HANCOM-1        
1 52740U 22057J   22324.12295858  .00008355  00000+0  45361-3 0  9999
2 52740  97.5410  76.9786 0010312   8.3468 351.7933 15.14742625 26977
LEMUR-2-MIMI1307        
1 52769U 22057AP  22323.79401982  .00015547  00000+0  81493-3 0  9996
2 52769  97.5396  76.9130 0013949 341.4845  18.5878 15.15785057 26943
